IRIDIUM 136             
1 42962U 17061H   23364.16989195  .00000336  00000+0  11290-3 0  9991
2 42962  86.3960  41.3680 0002385  95.0554 265.0914 14.34218628325832
